$$SOE
2460728.500000000, A.D. 2025-Feb-22 00:00:00.0000, -3.384216179124767E+08, 1.937338790875739E+08, 1.592280573754980E+07,
2460735.500000000, A.D. 2025-Mar-01 00:00:00.0000, -3.430139034250385E+08, 1.836652731365504E+08, 1.369309534450268E+07,
2460742.500000000, A.D. 2025-Mar-08 00:00:00.0000, -3.473239887627271E+08, 1.734455876290987E+08, 1.145212174280034E+07,
2460749.500000000, A.D. 2025-Mar-15 00:00:00.0000, -3.513462493001797E+08, 1.630821926025894E+08, 9.201659800614469E+06,
2460756.500000000, A.D. 2025-Mar-22 00:00:00.0000, -3.550752442137148E+08, 1.525826996478800E+08, 6.943519181233995E+06,
2460763.500000000, A.D. 2025-Mar-29 00:00:00.0000, -3.585057289522747E+08, 1.419549576963155E+08, 4.679543081381276E+06,
2460770.500000000, A.D. 2025-Apr-05 00:00:00.0000, -3.616326661764413E+08, 1.312070490992765E+08, 2.411606765561894E+06,
2460777.500000000, A.D. 2025-Apr-12 00:00:00.0000, -3.644512370683705E+08, 1.203472860780962E+08, 1.416160781113729E+05,
2460784.500000000, A.D. 2025-Apr-19 00:00:00.0000, -3.669568531730077E+08, 1.093842066430383E+08, -2.128494125694342E+06,
2460791.500000000, A.D. 2025-Apr-26 00:00:00.0000, -3.691451684634625E+08, 9.832656975906636E+07, -4.396761674269997E+06,
2460798.500000000, A.D. 2025-May-03 00:00:00.0000, -3.710120914760712E+08, 8.718334975683668E+07, -6.661198911487240E+06,
2460805.500000000, A.D. 2025-May-10 00:00:00.0000, -3.725537974431984E+08, 7.596372997692782E+07, -8.919794669247575E+06,
2460812.500000000, A.D. 2025-May-17 00:00:00.0000, -3.737667403417736E+08, 6.467709558728838E+07, -1.117051638856435E+07,
2460819.500000000, A.D. 2025-May-24 00:00:00.0000, -3.746476646362926E+08, 5.333302550300126E+07, -1.341131240974090E+07,
2460826.500000000, A.D. 2025-May-31 00:00:00.0000, -3.751936162487332E+08, 4.194128370586555E+07, -1.564011444389264E+07,
2460833.500000000, A.D. 2025-Jun-07 00:00:00.0000, -3.754019531040331E+08, 3.051181115794057E+07, -1.785484008905495E+07,
2460840.500000000, A.D. 2025-Jun-14 00:00:00.0000, -3.752703575628670E+08, 1.905471763425272E+07, -2.005339522638854E+07,
2460847.500000000, A.D. 2025-Jun-21 00:00:00.0000, -3.747968494734398E+08, 7.580270200504997E+06, -2.223367667297392E+07,
2460854.500000000, A.D. 2025-Jun-28 00:00:00.0000, -3.739797966581072E+08, -3.901119895363631E+06, -2.439357523007278E+07,
2460861.500000000, A.D. 2025-Jul-05 00:00:00.0000, -3.728179242889102E+08, -1.537890975487484E+07, -2.653097880585251E+07,
2460868.500000000, A.D. 2025-Jul-12 00:00:00.0000, -3.713103242823072E+08, -2.684243758179569E+07, -2.864377556313248E+07,
2460875.500000000, A.D. 2025-Jul-19 00:00:00.0000, -3.694564644664965E+08, -3.828093621748647E+07, -3.072985715037127E+07,
2460882.500000000, A.D. 2025-Jul-26 00:00:00.0000, -3.672561972535118E+08, -4.968354749471751E+07, -3.278712203246643E+07,
2460889.500000000, A.D. 2025-Aug-02 00:00:00.0000, -3.647097676912962E+08, -6.103933736255141E+07, -3.481347891695077E+07,
2460896.500000000, A.D. 2025-Aug-09 00:00:00.0000, -3.618178208131865E+08, -7.233731176656005E+07, -3.680685026922284E+07,
2460903.500000000, A.D. 2025-Aug-16 00:00:00.0000, -3.585814081501415E+08, -8.356643331221354E+07, -3.876517591840937E+07,
2460910.500000000, A.D. 2025-Aug-23 00:00:00.0000, -3.550019930572144E+08, -9.471563865424551E+07, -4.068641676779123E+07,
2460917.500000000, A.D. 2025-Aug-30 00:00:00.0000, -3.510814544713631E+08, -1.057738558518617E+08, -4.256855856904909E+07,
2460924.500000000, A.D. 2025-Sep-06 00:00:00.0000, -3.468220904667472E+08, -1.167300206386701E+08, -4.440961553498819E+07,
2460931.500000000, A.D. 2025-Sep-13 00:00:00.0000, -3.422266232307137E+08, -1.275730940359677E+08, -4.620763382660370E+07,
2460938.500000000, A.D. 2025-Sep-20 00:00:00.0000, -3.372982021468740E+08, -1.382920828949293E+08, -4.796069533541662E+07,
2460945.500000000, A.D. 2025-Sep-27 00:00:00.0000, -3.320404038897863E+08, -1.488760601897618E+08, -4.966692158900575E+07,
2460952.500000000, A.D. 2025-Oct-04 00:00:00.0000, -3.264572315115481E+08, -1.593141844512481E+08, -5.132447753414864E+07,
2460959.500000000, A.D. 2025-Oct-11 00:00:00.0000, -3.205531128621561E+08, -1.695957192113917E+08, -5.293157522374796E+07,
2460966.500000000, A.D. 2025-Oct-18 00:00:00.0000, -3.143328980368803E+08, -1.797100526599466E+08, -5.448647744036401E+07,
2460973.500000000, A.D. 2025-Oct-25 00:00:00.0000, -3.078018556963638E+08, -1.896467174246033E+08, -5.598750125307819E+07,
2460980.500000000, A.D. 2025-Nov-01 00:00:00.0000, -3.009656682116687E+08, -1.993954103786067E+08, -5.743302149471114E+07,
2460987.500000000, A.D. 2025-Nov-08 00:00:00.0000, -2.938304255976925E+08, -2.089460124243187E+08, -5.882147414980545E+07,
2460994.500000000, A.D. 2025-Nov-15 00:00:00.0000, -2.864026180921273E+08, -2.182886082266783E+08, -6.015135965653370E+07,
2461001.500000000, A.D. 2025-Nov-22 00:00:00.0000, -2.786891269891042E+08, -2.274135055898497E+08, -6.142124612603226E+07,
2461008.500000000, A.D. 2025-Nov-29 00:00:00.0000, -2.706972138976176E+08, -2.363112532536619E+08, -6.262977235596628E+07,
2461015.500000000, A.D. 2025-Dec-06 00:00:00.0000, -2.624345107222953E+08, -2.449726571584342E+08, -6.377565042343736E+07,
2461022.500000000, A.D. 2025-Dec-13 00:00:00.0000, -2.539090099587770E+08, -2.533887984675884E+08, -6.485766815690885E+07,
2461029.500000000, A.D. 2025-Dec-20 00:00:00.0000, -2.451290518476150E+08, -2.615510522516302E+08, -6.587469171200302E+07,
2461036.500000000, A.D. 2025-Dec-27 00:00:00.0000, -2.361033095087245E+08, -2.694511041717021E+08, -6.682566793160257E+07,
2461043.500000000, A.D. 2026-Jan-03 00:00:00.0000, -2.268407735717057E+08, -2.770809657080221E+08, -6.770962639830399E+07,
2461050.500000000, A.D. 2026-Jan-10 00:00:00.0000, -2.173507362534206E+08, -2.844329885433206E+08, -6.852568123641162E+07,
2461057.500000000, A.D. 2026-Jan-17 00:00:00.0000, -2.076427747151290E+08, -2.914998781284492E+08, -6.927303268441541E+07,
2461064.500000000, A.D. 2026-Jan-24 00:00:00.0000, -1.977267336906149E+08, -2.982747063493735E+08, -6.995096843664177E+07,
2461071.500000000, A.D. 2026-Jan-31 00:00:00.0000, -1.876127074359539E+08, -3.047509232508748E+08, -7.055886475152487E+07,
2461078.500000000, A.D. 2026-Feb-07 00:00:00.0000, -1.773110210171144E+08, -3.109223678281810E+08, -7.109618733266883E+07,
2461085.500000000, A.D. 2026-Feb-14 00:00:00.0000, -1.668322107628403E+08, -3.167832778623835E+08, -7.156249200440025E+07,
2461092.500000000, A.D. 2026-Feb-21 00:00:00.0000, -1.561870035783148E+08, -3.223282981903158E+08, -7.195742516899766E+07,
2461099.500000000, A.D. 2026-Feb-28 00:00:00.0000, -1.453862962892517E+08, -3.275524862297626E+08, -7.228072385197757E+07,
2461106.500000000, A.D. 2026-Mar-07 00:00:00.0000, -1.344411371599011E+08, -3.324513166912228E+08, -7.253221530747379E+07,
2461113.500000000, A.D. 2026-Mar-14 00:00:00.0000, -1.233627068945811E+08, -3.370206877997407E+08, -7.271181663265078E+07,
2461120.500000000, A.D. 2026-Mar-21 00:00:00.0000, -1.121622974268822E+08, -3.412569261287179E+08, -7.281953432362591E+07,
2461127.500000000, A.D. 2026-Mar-28 00:00:00.0000, -1.008512905927689E+08, -3.451567890226235E+08, -7.285546351109271E+07,
2461134.500000000, A.D. 2026-Apr-04 00:00:00.0000, -8.944113737599123E+07, -3.487174655852482E+08, -7.281978690637304E+07,
2461141.500000000, A.D. 2026-Apr-11 00:00:00.0000, -7.794333753385611E+07, -3.519365766103940E+08, -7.271277352043121E+07,
2461148.500000000, A.D. 2026-Apr-18 00:00:00.0000, -6.636941952228262E+07, -3.548121734846758E+08, -7.253477717995624E+07,
2461155.500000000, A.D. 2026-Apr-25 00:00:00.0000, -5.473092074823788E+07, -3.573427360775942E+08, -7.228623485385144E+07,
2461162.500000000, A.D. 2026-May-02 00:00:00.0000, -4.303936818923489E+07, -3.595271696854676E+08, -7.196766480719304E+07,
2461169.500000000, A.D. 2026-May-09 00:00:00.0000, -3.130625932247362E+07, -3.613648011380369E+08, -7.157966461219203E+07,
2461176.500000000, A.D. 2026-May-16 00:00:00.0000, -1.954304304878260E+07, -3.628553739760257E+08, -7.112290905253391E+07,
2461183.500000000, A.D. 2026-May-23 00:00:00.0000, -7.761100617802232E+06, -3.639990417272430E+08, -7.059814785552336E+07,
2461190.500000000, A.D. 2026-May-30 00:00:00.0000, 4.028271314068140E+06, -3.647963590137659E+08, -7.000620304851383E+07,
2461197.500000000, A.D. 2026-Jun-06 00:00:00.0000, 1.581387512885729E+07, -3.652482738176010E+08, -6.934796619137082E+07,
2461204.500000000, A.D. 2026-Jun-13 00:00:00.0000, 2.758462782055463E+07, -3.653561207640724E+08, -6.862439581904158E+07,
2461211.500000000, A.D. 2026-Jun-20 00:00:00.0000, 3.932957715951934E+07, -3.651216125584351E+08, -6.783651482346123E+07,
2461218.500000000, A.D. 2026-Jun-27 00:00:00.0000, 5.103791671783645E+07, -3.645468299769711E+08, -6.698540766032553E+07,
2461225.500000000, A.D. 2026-Jul-04 00:00:00.0000, 6.269899973007573E+07, -3.636342112482000E+08, -6.607221745691943E+07,
2461232.500000000, A.D. 2026-Jul-11 00:00:00.0000, 7.430235202421048E+07, -3.623865410167502E+08, -6.509814306766260E+07,
2461239.500000000, A.D. 2026-Jul-18 00:00:00.0000, 8.583768410233627E+07, -3.608069389246058E+08, -6.406443609631465E+07,
2461246.500000000, A.D. 2026-Jul-25 00:00:00.0000, 9.729490238872002E+07, -3.588988478674001E+08, -6.297239789963551E+07,
2461253.500000000, A.D. 2026-Aug-01 00:00:00.0000, 1.086641196920119E+08, -3.566660220352906E+08, -6.182337659408739E+07,
2461260.500000000, A.D. 2026-Aug-08 00:00:00.0000, 1.199356650988273E+08, -3.541125148371617E+08, -6.061876410148431E+07,
2461267.500000000, A.D. 2026-Aug-15 00:00:00.0000, 1.311000937174435E+08, -3.512426663198261E+08, -5.935999324696338E+07,
2461274.500000000, A.D. 2026-Aug-22 00:00:00.0000, 1.421481955152631E+08, -3.480610889184892E+08, -5.804853474963564E+07,
2461281.500000000, A.D. 2026-Aug-29 00:00:00.0000, 1.530710009682892E+08, -3.445726529609746E+08, -5.668589401583819E+07,
2461288.500000000, A.D. 2026-Sep-05 00:00:00.0000, 1.638597856699541E+08, -3.407824748368208E+08, -5.527360817175882E+07,
$$EOE